STARLINK-2103
1 17383C 21005AL  21326.13508402  .00000706  00000-0  47329-4 0  3266
2 17383  53.0526 223.1374 0001909  58.4410  94.4886 15.06400594    15
